FENGYUN 1C DEB          
1 31209U 99025BKP 26103.02400750  .00004456  00000+0  12612-2 0  9992
2 31209  98.8773 208.5420 0019140 343.7522  16.3052 14.45990825665596
FENGYUN 1C DEB          
1 31210U 99025BKQ 26115.28342225  .00000477  00000+0  28246-3 0  9997
2 31210  98.7224 117.6791 0017777 135.2176 241.1013 14.12182660978521
FENGYUN 1C DEB          
1 31211U 99025BKR 26116.37556872  .00001755  00000+0  82398-3 0  9992
2 31211  98.6560 154.5918 0051242  61.8854 298.7489 14.20652058652040
FENGYUN 1C DEB          
1 31212U 99025BKS 26113.63610890  .00001622  00000+0  85772-3 0  9992
2 31212  99.2024 153.9987 0075543 160.7168 199.6890 14.13812904975222
FENGYUN 1C DEB          
1 31215U 99025BKV 26106.85240518  .00001274  00000+0  45673-3 0  9996
2 31215  99.0682 322.0272 0068307 320.5746  39.0477 14.34540156983190
FENGYUN 1C DEB          
1 31217U 99025BKX 26115.75524022  .00000894  00000+0  43550-3 0  9991
2 31217  98.6391 125.0333 0099928 134.5258 226.4136 14.17932648982473
FENGYUN 1C DEB          
1 31218U 99025BKY 26115.28861388  .00036148  00000+0  44626-2 0  9994
2 31218  98.8385 243.2546 0008224 330.3280  29.7463 14.82702348990557
FENGYUN 1C DEB          
1 31219U 99025BKZ 26114.50968670  .00001589  00000+0  82688-3 0  9993
2 31219  99.2765 134.4755 0079291 164.1086 196.2600 14.14569040974467
FENGYUN 1C DEB          
1 31222U 99025BLC 26115.67997256  .00005251  00000+0  32416-3 0  9992
2 31222  98.5844 204.6168 0155117 350.3548   9.4703 15.00896634 19909
FENGYUN 1C DEB          
1 31223U 99025BLD 26115.62051679  .00004737  00000+0  38210-2 0  9993
2 31223  99.0244   0.3156 0236458  44.5197 317.4689 13.78640287945725
FENGYUN 1C DEB          
1 31224U 99025BLE 26114.74667248  .00000614  00000+0  22599-3 0  9995
2 31224  98.3806 106.5025 0158095 130.0547  47.7502 14.29245381711503
FENGYUN 1C DEB          
1 31225U 99025BLF 26115.21768051  .00002004  00000+0  95227-3 0  9996
2 31225  98.9772 195.0899 0085650 331.7318  51.3916 14.18720606977146
FENGYUN 1C DEB          
1 31226U 99025BLG 26111.72278851  .00000228  00000+0  10197-3 0  9992
2 31226  98.3563 110.7126 0126973 173.1585 187.1367 14.26917980639071
FENGYUN 1C DEB          
1 31228U 99025BLJ 26116.24619308  .00001435  00000+0  47835-3 0  9992
2 31228  98.8696  37.2001 0078993  49.9540 102.6730 14.37405975995012
FENGYUN 1C DEB          
1 31229U 99025BLK 26115.68992298  .00001948  00000+0  87739-3 0  9998
2 31229  98.8558 196.7023 0051597 271.9328  87.5941 14.22743754979883
FENGYUN 1C DEB          
1 31231U 99025BLM 26116.29833242  .00023061  00000+0  24489-2 0  9994
2 31231  98.8694 294.1621 0128604  42.4028 318.7034 14.83079293650106
FENGYUN 1C DEB          
1 31234U 99025BLQ 26109.73263639  .00000113  00000+0  89740-4 0  9991
2 31234  98.7941 105.4040 0072946 226.0249 133.4890 14.08154509745214
FENGYUN 1C DEB          
1 31235U 99025BLR 26116.35997816  .00002670  00000+0  10756-2 0  9998
2 31235  98.4603 264.0415 0160946 351.2780   8.5608 14.22015830650789
FENGYUN 1C DEB          
1 31236U 99025BLS 26115.60165904  .00007296  00000+0  42089-2 0  9994
2 31236  98.5451  64.5752 0310559  39.6319 322.7099 13.87806022628805
FENGYUN 1C DEB          
1 31237U 99025BLT 26116.47895274  .00001146  00000+0  42658-3 0  9992
2 31237  98.4589 116.8833 0087295 310.3557  49.0027 14.31819832991940
FENGYUN 1C DEB          
1 31239U 99025BLV 26116.48065556  .00000394  00000+0  24481-3 0  9995
2 31239  98.7668 112.9211 0049643 176.2637 337.9216 14.10056397979102
FENGYUN 1C DEB          
1 31240U 99025BLW 26111.26058715  .00000527  00000+0  32153-3 0  9990
2 31240  98.7535 117.1272 0045779  12.4621 358.6137 14.09723115239222
FENGYUN 1C DEB          
1 31241U 99025BLX 26116.37690421  .00001453  00000+0  47290-3 0  9991
2 31241  99.2537 278.5545 0066919 147.5674 212.9650 14.39187048996272
FENGYUN 1C DEB          
1 31243U 99025BLZ 26115.57492458  .00000746  00000+0  45807-3 0  9990
2 31243  98.7329 156.5075 0066793 150.4407 210.0565 14.07520792711908
FENGYUN 1C DEB          
1 31244U 99025BMA 26111.89415080  .00000562  00000+0  34995-3 0  9990
2 31244  99.0119 180.1143 0102732 171.5252 188.7682 14.06443213594692
FENGYUN 1C DEB          
1 31246U 99025BMC 26110.36007757  .00002301  00000+0  12459-2 0  9994
2 31246  98.8103 319.3424 0145428 342.4319  17.1850 14.08234336635621
FENGYUN 1C DEB          
1 31247U 99025BMD 26115.51725757  .00000671  00000+0  43546-3 0  9994
2 31247  99.3558  12.9876 0060376  55.5125  68.9687 14.05420093974008
FENGYUN 1C DEB          
1 31248U 99025BME 26116.42870726  .00000512  00000+0  40922-3 0  9992
2 31248  99.2432 178.8424 0108748 306.5768  71.6298 13.92999394966996
FENGYUN 1C DEB          
1 31250U 99025BMG 26114.31806204  .00000908  00000+0  56015-3 0  9990
2 31250  98.3821 319.1081 0131427 282.8066  75.8445 14.03542705973774
FENGYUN 1C DEB          
1 31252U 99025BMJ 26116.31477811  .00001458  00000+0  36038-3 0  9996
2 31252  98.3069 136.4449 0213420 126.5332 235.5718 14.40655513991447
FENGYUN 1C DEB          
1 31253U 99025BMK 26115.46298068  .00000449  00000+0  21571-3 0  9992
2 31253  99.0557 185.3016 0290184  79.3172 284.0526 14.03786539708747
FENGYUN 1C DEB          
1 31254U 99025BML 26113.09593332  .00000937  00000+0  29251-3 0  9997
2 31254  98.4393 165.4185 0151143 170.1729 220.8929 14.36765418994026
FENGYUN 1C DEB          
1 31255U 99025BMM 26116.29743667  .00000475  00000+0  21357-3 0  9997
2 31255  99.3163 303.2446 0269368 328.7275  29.8107 14.10023741986978
FENGYUN 1C DEB          
1 31256U 99025BMN 26115.29702171  .00005907  00000+0  24241-2 0  9991
2 31256  98.6737 322.2801 0304142  98.2722 265.3052 14.05256590668562
FENGYUN 1C DEB          
1 31259U 99025BMR 26116.52048737  .00003252  00000+0  16397-2 0  9996
2 31259  98.9987 202.0456 0065769 173.0193 314.6067 14.15897536974767
FENGYUN 1C DEB          
1 31260U 99025BMS 26116.24826792  .00002113  00000+0  71729-3 0  9998
2 31260  98.9512  23.5575 0045363 256.3990 256.4971 14.37216782991251
FENGYUN 1C DEB          
1 31261U 99025BMT 26116.35444047  .00002250  00000+0  70475-3 0  9999
2 31261  99.0307  82.0495 0049541 194.2740 165.7050 14.41009735992885
FENGYUN 1C DEB          
1 31262U 99025BMU 26114.20042324  .00002066  00000+0  99341-3 0  9992
2 31262  98.9921 204.5678 0055668  81.5260 309.1024 14.19134250975873
FENGYUN 1C DEB          
1 31264U 99025BMW 26115.49683765  .00000797  00000+0  40488-3 0  9993
2 31264  99.1074  21.1205 0001158  42.0852 138.7281 14.18917808983259
FENGYUN 1C DEB          
1 31266U 99025BMY 26116.47666985  .00000440  00000+0  20152-3 0  9990
2 31266  99.2701 111.3778 0128949 260.6735 254.2943 14.22537745991219
FENGYUN 1C DEB          
1 31268U 99025BNA 26109.32986229  .00000962  00000+0  59772-3 0  9993
2 31268  98.7403 152.3289 0049672 183.2715 176.8137 14.06719144638263
FENGYUN 1C DEB          
1 31269U 99025BNB 26115.63601461  .00003760  00000+0  76813-3 0  9991
2 31269  98.1649 353.8160 0233603 226.9062 159.6854 14.45685305984202
FENGYUN 1C DEB          
1 31272U 99025BNE 26114.40528436  .00000745  00000+0  32941-3 0  9993
2 31272  99.0777 355.4510 0107011  93.0748 268.2680 14.23261376988765
FENGYUN 1C DEB          
1 31274U 99025BNG 26116.34815245  .00000766  00000+0  55767-3 0  9991
2 31274  99.0139 295.6950 0241960 106.6280 256.1591 13.85958504960711
FENGYUN 1C DEB          
1 31275U 99025BNH 26114.06098572  .00000977  00000+0  63097-3 0  9994
2 31275  98.9269 159.9274 0102501 345.2699  14.5486 14.02742795973410
FENGYUN 1C DEB          
1 31279U 99025BNM 26115.24786517  .00000865  00000+0  36433-3 0  9992
2 31279  98.5154 124.9327 0074166 146.5310 214.0590 14.26673558991320
FENGYUN 1C DEB          
1 31281U 99025BNP 26116.40022535  .00038214  00000+0  11957-2 0  9999
2 31281  98.3980 272.2428 0088545 350.6003   9.3572 15.29202384 17491
FENGYUN 1C DEB          
1 31282U 99025BNQ 26113.05202606  .00000323  00000+0  10186-3 0  9991
2 31282  99.2232  46.1562 0126430 259.0602  99.6341 14.43700734990158
FENGYUN 1C DEB          
1 31284U 99025BNS 26116.55269606  .00000540  00000+0  37879-3 0  9993
2 31284  99.7195 223.8554 0142680  56.1956 305.2697 13.98215396970467
FENGYUN 1C DEB          
1 31285U 99025BNT 26115.40882925  .00000368  00000+0  13971-3 0  9997
2 31285  98.5363  97.3926 0199795 155.4721   6.2316 14.26255341992041
FENGYUN 1C DEB          
1 31286U 99025BNU 26115.57895682  .00004979  00000+0  21050-2 0  9998
2 31286 100.8581  42.2788 0076724 279.7950  79.4564 14.24567725659245
FENGYUN 1C DEB          
1 31287U 99025BNV 26113.15392972  .00002243  00000+0  90180-3 0  9998
2 31287  99.3929 184.1944 0027615  49.3744 310.9831 14.29052068985629
FENGYUN 1C DEB          
1 31288U 99025BNW 26115.97119442  .00194746  00000+0  74462-2 0  9994
2 31288  98.7458 297.6353 0017621 220.2413 299.7728 15.25602586995817
FENGYUN 1C DEB          
1 31293U 99025BPB 26114.75382807  .00000081  00000+0  43768-4 0  9997
2 31293  98.4218 123.4443 0125765 211.2073 148.1601 14.30876375671464
FENGYUN 1C DEB          
1 31294U 99025BPC 26114.20744365  .00000575  00000+0  30130-3 0  9995
2 31294  98.5518 109.3928 0098764 320.5633  38.8381 14.15571475987279
FENGYUN 1C DEB          
1 31295U 99025BPD 26116.19519451  .00000332  00000+0  25942-3 0  9998
2 31295  98.3262 293.4277 0076726 233.8298 125.5753 13.96881188973807
FENGYUN 1C DEB          
1 31296U 99025BPE 26116.27554029  .00041262  00000+0  51318-2 0  9990
2 31296  99.0631  52.6008 0018033 144.5048 215.7365 14.82263498993358
FENGYUN 1C DEB          
1 31297U 99025BPF 26115.38062706  .00001342  00000+0  26956-3 0  9994
2 31297  98.9539 267.1424 0138690  76.7882 338.1966 14.57645820 12470
FENGYUN 1C DEB          
1 31300U 99025BPJ 26116.22311977  .00002090  00000+0  10690-2 0  9998
2 31300  99.5330 209.8684 0060233  46.4935 342.5659 14.15843797980774
